STARLINK-36461          
1 67316U 26002M   26014.91667824 -.01416419  00000+0 -54003-2 0  9990
2 67316  42.9975 276.3036 0001593 268.4081   0.2768 15.89317249  2931
STARLINK-36450          
1 67317U 26002N   26014.91667824 -.01418675  00000+0 -54054-2 0  9993
2 67317  42.9976 276.2979 0001688 266.3235   4.6711 15.89333265  2933
STARLINK-36498          
1 67318U 26002P   26014.91667824 -.01432751  00000+0 -54587-2 0  9996
2 67318  42.9974 276.2852 0001668 264.9642  10.9396 15.89363751  2837
STARLINK-36470          
1 67319U 26002Q   26014.91667824 -.01424421  00000+0 -54268-2 0  9998
2 67319  42.9977 276.2916 0001686 267.0578   6.3952 15.89346879  2833
STARLINK-36500          
1 67320U 26002R   26014.91667824 -.01437896  00000+0 -54764-2 0  9991
2 67320  42.9978 276.2798 0001704 262.5561  15.7257 15.89380750  2835
STARLINK-36462          
1 67321U 26002S   26014.91667824 -.01455956  00000+0 -55468-2 0  9991
2 67321  42.9979 276.2669 0001698 267.6785  15.6359 15.89412642  2771
STARLINK-36434          
1 67322U 26002T   26014.91667824 -.01455905  00000+0 -55545-2 0  9992
2 67322  42.9979 276.2714 0001630 271.1645  10.3209 15.89385979  2772
STARLINK-36497          
1 67323U 26002U   26014.91667824 -.01462019  00000+0 -55697-2 0  9995
2 67323  42.9980 276.2606 0001693 268.1335  17.6625 15.89426335  2837
STARLINK-36471          
1 67324U 26002V   26014.91667824 -.01482753  00000+0 -56565-2 0  9998
2 67324  42.9984 276.2459 0001724 267.8884  23.8531 15.89442417  2775
STARLINK-36473          
1 67325U 26002W   26014.91667824 -.01475481  00000+0 -56281-2 0  9994
2 67325  42.9979 276.2527 0001708 266.5521  22.4718 15.89429722  2936
STARLINK-36430          
1 67326U 26002X   26014.91667824 -.01501171  00000+0 -57313-2 0  9998
2 67326  42.9981 276.2317 0001750 266.1192  31.1627 15.89465373  2932
STARLINK-36501          
1 67327U 26002Y   26014.91667824 -.01487751  00000+0 -56754-2 0  9994
2 67327  42.9982 276.2390 0001719 265.5016  28.9086 15.89453482  2771
