CCSDS_OMM_VERS = 2.0
CREATION_DATE  = 
ORIGINATOR     = 

OBJECT_NAME    = STARLINK-36461
OBJECT_ID      = 2026-002M
CENTER_NAME    = EARTH
REF_FRAME      = TEME
TIME_SYSTEM    = UTC
MEAN_ELEMENT_THEORY = SGP/SGP4

EPOCH          = 2026-01-14T22:00:00.999936
MEAN_MOTION    = 15.89317249
ECCENTRICITY   = .00015935
INCLINATION    = 42.9975
RA_OF_ASC_NODE = 276.3036
ARG_OF_PERICENTER = 268.4081
MEAN_ANOMALY   = 0.2768

EPHEMERIS_TYPE = 0
CLASSIFICATION_TYPE = U
NORAD_CAT_ID   = 67316
ELEMENT_SET_NO = 999
REV_AT_EPOCH   = 293
BSTAR          = -.54003138E-2
MEAN_MOTION_DOT = -.1416419E-1
MEAN_MOTION_DDOT = 0

CCSDS_OMM_VERS = 2.0
CREATION_DATE  = 
ORIGINATOR     = 

OBJECT_NAME    = STARLINK-36450
OBJECT_ID      = 2026-002N
CENTER_NAME    = EARTH
REF_FRAME      = TEME
TIME_SYSTEM    = UTC
MEAN_ELEMENT_THEORY = SGP/SGP4

EPOCH          = 2026-01-14T22:00:00.999936
MEAN_MOTION    = 15.89333265
ECCENTRICITY   = .00016887
INCLINATION    = 42.9976
RA_OF_ASC_NODE = 276.2979
ARG_OF_PERICENTER = 266.3235
MEAN_ANOMALY   = 4.6711

EPHEMERIS_TYPE = 0
CLASSIFICATION_TYPE = U
NORAD_CAT_ID   = 67317
ELEMENT_SET_NO = 999
REV_AT_EPOCH   = 293
BSTAR          = -.54054102E-2
MEAN_MOTION_DOT = -.1418675E-1
MEAN_MOTION_DDOT = 0

CCSDS_OMM_VERS = 2.0
CREATION_DATE  = 
ORIGINATOR     = 

OBJECT_NAME    = STARLINK-36498
OBJECT_ID      = 2026-002P
CENTER_NAME    = EARTH
REF_FRAME      = TEME
TIME_SYSTEM    = UTC
MEAN_ELEMENT_THEORY = SGP/SGP4

EPOCH          = 2026-01-14T22:00:00.999936
MEAN_MOTION    = 15.89363751
ECCENTRICITY   = .00016682
INCLINATION    = 42.9974
RA_OF_ASC_NODE = 276.2852
ARG_OF_PERICENTER = 264.9642
MEAN_ANOMALY   = 10.9396

EPHEMERIS_TYPE = 0
CLASSIFICATION_TYPE = U
NORAD_CAT_ID   = 67318
ELEMENT_SET_NO = 999
REV_AT_EPOCH   = 283
BSTAR          = -.54587274E-2
MEAN_MOTION_DOT = -.1432751E-1
MEAN_MOTION_DDOT = 0

CCSDS_OMM_VERS = 2.0
CREATION_DATE  = 
ORIGINATOR     = 

OBJECT_NAME    = STARLINK-36470
OBJECT_ID      = 2026-002Q
CENTER_NAME    = EARTH
REF_FRAME      = TEME
TIME_SYSTEM    = UTC
MEAN_ELEMENT_THEORY = SGP/SGP4

EPOCH          = 2026-01-14T22:00:00.999936
MEAN_MOTION    = 15.89346879
ECCENTRICITY   = .00016865
INCLINATION    = 42.9977
RA_OF_ASC_NODE = 276.2916
ARG_OF_PERICENTER = 267.0578
MEAN_ANOMALY   = 6.3952

EPHEMERIS_TYPE = 0
CLASSIFICATION_TYPE = U
NORAD_CAT_ID   = 67319
ELEMENT_SET_NO = 999
REV_AT_EPOCH   = 283
BSTAR          = -.54268215E-2
MEAN_MOTION_DOT = -.1424421E-1
MEAN_MOTION_DDOT = 0

CCSDS_OMM_VERS = 2.0
CREATION_DATE  = 
ORIGINATOR     = 

OBJECT_NAME    = STARLINK-36500
OBJECT_ID      = 2026-002R
CENTER_NAME    = EARTH
REF_FRAME      = TEME
TIME_SYSTEM    = UTC
MEAN_ELEMENT_THEORY = SGP/SGP4

EPOCH          = 2026-01-14T22:00:00.999936
MEAN_MOTION    = 15.89380750
ECCENTRICITY   = .00017041
INCLINATION    = 42.9978
RA_OF_ASC_NODE = 276.2798
ARG_OF_PERICENTER = 262.5561
MEAN_ANOMALY   = 15.7257

EPHEMERIS_TYPE = 0
CLASSIFICATION_TYPE = U
NORAD_CAT_ID   = 67320
ELEMENT_SET_NO = 999
REV_AT_EPOCH   = 283
BSTAR          = -.54764143E-2
MEAN_MOTION_DOT = -.1437896E-1
MEAN_MOTION_DDOT = 0

CCSDS_OMM_VERS = 2.0
CREATION_DATE  = 
ORIGINATOR     = 

OBJECT_NAME    = STARLINK-36462
OBJECT_ID      = 2026-002S
CENTER_NAME    = EARTH
REF_FRAME      = TEME
TIME_SYSTEM    = UTC
MEAN_ELEMENT_THEORY = SGP/SGP4

EPOCH          = 2026-01-14T22:00:00.999936
MEAN_MOTION    = 15.89412642
ECCENTRICITY   = .00016987
INCLINATION    = 42.9979
RA_OF_ASC_NODE = 276.2669
ARG_OF_PERICENTER = 267.6785
MEAN_ANOMALY   = 15.6359

EPHEMERIS_TYPE = 0
CLASSIFICATION_TYPE = U
NORAD_CAT_ID   = 67321
ELEMENT_SET_NO = 999
REV_AT_EPOCH   = 277
BSTAR          = -.55468338E-2
MEAN_MOTION_DOT = -.1455956E-1
MEAN_MOTION_DDOT = 0

CCSDS_OMM_VERS = 2.0
CREATION_DATE  = 
ORIGINATOR     = 

OBJECT_NAME    = STARLINK-36434
OBJECT_ID      = 2026-002T
CENTER_NAME    = EARTH
REF_FRAME      = TEME
TIME_SYSTEM    = UTC
MEAN_ELEMENT_THEORY = SGP/SGP4

EPOCH          = 2026-01-14T22:00:00.999936
MEAN_MOTION    = 15.89385979
ECCENTRICITY   = .00016309
INCLINATION    = 42.9979
RA_OF_ASC_NODE = 276.2714
ARG_OF_PERICENTER = 271.1645
MEAN_ANOMALY   = 10.3209

EPHEMERIS_TYPE = 0
CLASSIFICATION_TYPE = U
NORAD_CAT_ID   = 67322
ELEMENT_SET_NO = 999
REV_AT_EPOCH   = 277
BSTAR          = -.55544774E-2
MEAN_MOTION_DOT = -.1455905E-1
MEAN_MOTION_DDOT = 0

CCSDS_OMM_VERS = 2.0
CREATION_DATE  = 
ORIGINATOR     = 

OBJECT_NAME    = STARLINK-36497
OBJECT_ID      = 2026-002U
CENTER_NAME    = EARTH
REF_FRAME      = TEME
TIME_SYSTEM    = UTC
MEAN_ELEMENT_THEORY = SGP/SGP4

EPOCH          = 2026-01-14T22:00:00.999936
MEAN_MOTION    = 15.89426335
ECCENTRICITY   = .00016936
INCLINATION    = 42.9980
RA_OF_ASC_NODE = 276.2606
ARG_OF_PERICENTER = 268.1335
MEAN_ANOMALY   = 17.6625

EPHEMERIS_TYPE = 0
CLASSIFICATION_TYPE = U
NORAD_CAT_ID   = 67323
ELEMENT_SET_NO = 999
REV_AT_EPOCH   = 283
BSTAR          = -.55696571E-2
MEAN_MOTION_DOT = -.1462019E-1
MEAN_MOTION_DDOT = 0

CCSDS_OMM_VERS = 2.0
CREATION_DATE  = 
ORIGINATOR     = 

OBJECT_NAME    = STARLINK-36471
OBJECT_ID      = 2026-002V
CENTER_NAME    = EARTH
REF_FRAME      = TEME
TIME_SYSTEM    = UTC
MEAN_ELEMENT_THEORY = SGP/SGP4

EPOCH          = 2026-01-14T22:00:00.999936
MEAN_MOTION    = 15.89442417
ECCENTRICITY   = .00017244
INCLINATION    = 42.9984
RA_OF_ASC_NODE = 276.2459
ARG_OF_PERICENTER = 267.8884
MEAN_ANOMALY   = 23.8531

EPHEMERIS_TYPE = 0
CLASSIFICATION_TYPE = U
NORAD_CAT_ID   = 67324
ELEMENT_SET_NO = 999
REV_AT_EPOCH   = 277
BSTAR          = -.56564771E-2
MEAN_MOTION_DOT = -.1482753E-1
MEAN_MOTION_DDOT = 0

CCSDS_OMM_VERS = 2.0
CREATION_DATE  = 
ORIGINATOR     = 

OBJECT_NAME    = STARLINK-36473
OBJECT_ID      = 2026-002W
CENTER_NAME    = EARTH
REF_FRAME      = TEME
TIME_SYSTEM    = UTC
MEAN_ELEMENT_THEORY = SGP/SGP4

EPOCH          = 2026-01-14T22:00:00.999936
MEAN_MOTION    = 15.89429722
ECCENTRICITY   = .00017086
INCLINATION    = 42.9979
RA_OF_ASC_NODE = 276.2527
ARG_OF_PERICENTER = 266.5521
MEAN_ANOMALY   = 22.4718

EPHEMERIS_TYPE = 0
CLASSIFICATION_TYPE = U
NORAD_CAT_ID   = 67325
ELEMENT_SET_NO = 999
REV_AT_EPOCH   = 293
BSTAR          = -.5628051E-2
MEAN_MOTION_DOT = -.1475481E-1
MEAN_MOTION_DDOT = 0

CCSDS_OMM_VERS = 2.0
CREATION_DATE  = 
ORIGINATOR     = 

OBJECT_NAME    = STARLINK-36430
OBJECT_ID      = 2026-002X
CENTER_NAME    = EARTH
REF_FRAME      = TEME
TIME_SYSTEM    = UTC
MEAN_ELEMENT_THEORY = SGP/SGP4

EPOCH          = 2026-01-14T22:00:00.999936
MEAN_MOTION    = 15.89465373
ECCENTRICITY   = .00017504
INCLINATION    = 42.9981
RA_OF_ASC_NODE = 276.2317
ARG_OF_PERICENTER = 266.1192
MEAN_ANOMALY   = 31.1627

EPHEMERIS_TYPE = 0
CLASSIFICATION_TYPE = U
NORAD_CAT_ID   = 67326
ELEMENT_SET_NO = 999
REV_AT_EPOCH   = 293
BSTAR          = -.57313192E-2
MEAN_MOTION_DOT = -.1501171E-1
MEAN_MOTION_DDOT = 0

CCSDS_OMM_VERS = 2.0
CREATION_DATE  = 
ORIGINATOR     = 

OBJECT_NAME    = STARLINK-36501
OBJECT_ID      = 2026-002Y
CENTER_NAME    = EARTH
REF_FRAME      = TEME
TIME_SYSTEM    = UTC
MEAN_ELEMENT_THEORY = SGP/SGP4

EPOCH          = 2026-01-14T22:00:00.999936
MEAN_MOTION    = 15.89453482
ECCENTRICITY   = .00017194
INCLINATION    = 42.9982
RA_OF_ASC_NODE = 276.2390
ARG_OF_PERICENTER = 265.5016
MEAN_ANOMALY   = 28.9086

EPHEMERIS_TYPE = 0
CLASSIFICATION_TYPE = U
NORAD_CAT_ID   = 67327
ELEMENT_SET_NO = 999
REV_AT_EPOCH   = 277
BSTAR          = -.56754097E-2
MEAN_MOTION_DOT = -.1487751E-1
MEAN_MOTION_DDOT = 0

